{
  "type": "FeatureCollection",
  "features": [
    {
      "type": "Feature",
      "properties": {
        "norad_id": 36585,
        "name": "GPS BIIF-1  (PRN 25)",
        "group": "gnss",
        "lat": 19.479965858961933,
        "lon": 20.849513241626052,
        "alt_km": 20179.47478336965,
        "timestamp": "2025-12-25T03:55:56.598721+00:00",
        "meta_object_name": "GPS BIIF-1  (PRN 25)",
        "meta_object_id": "2010-022A",
        "meta_epoch": "2025-12-24T05:28:23.943360",
        "meta_mean_motion": 2.00553772,
        "meta_eccentricity": 0.01265509,
        "meta_inclination": 54.2984,
        "meta_ra_of_asc_node": 215.6106,
        "meta_arg_of_pericenter": 65.2201,
        "meta_mean_anomaly": 133.4406,
        "meta_ephemeris_type": 0,
        "meta_classification_type": "U",
        "meta_norad_cat_id": 36585,
        "meta_element_set_no": 999,
        "meta_rev_at_epoch": 11408,
        "meta_bstar": 0,
        "meta_mean_motion_dot": 7.3e-07,
        "meta_mean_motion_ddot": 0,
        "tle_line1": "1 36585U 10022A   25358.22805490  .00000073  00000+0  00000+0 0  9993",
        "tle_line2": "2 36585  54.2984 215.6106 0126550  65.2201 133.4406  2.00553772114083"
      },
      "geometry": {
        "type": "Point",
        "coordinates": [
          20.849513241626052,
          19.479965858961933
        ]
      }
    },
    {
      "type": "Feature",
      "properties": {
        "norad_id": 36828,
        "name": "BEIDOU-2 IGSO-1 (C06)",
        "group": "gnss",
        "lat": 53.816227441574064,
        "lon": -95.31711730693463,
        "alt_km": 35883.79676549017,
        "timestamp": "2025-12-25T03:55:56.598734+00:00",
        "meta_object_name": "BEIDOU-2 IGSO-1 (C06)",
        "meta_object_id": "2010-036A",
        "meta_epoch": "2025-12-20T21:47:26.739168",
        "meta_mean_motion": 1.00282395,
        "meta_eccentricity": 0.0051798,
        "meta_inclination": 54.2882,
        "meta_ra_of_asc_node": 164.5739,
        "meta_arg_of_pericenter": 215.2932,
        "meta_mean_anomaly": 144.6604,
        "meta_ephemeris_type": 0,
        "meta_classification_type": "U",
        "meta_norad_cat_id": 36828,
        "meta_element_set_no": 999,
        "meta_rev_at_epoch": 5631,
        "meta_bstar": 0,
        "meta_mean_motion_dot": -5.5e-07,
        "meta_mean_motion_ddot": 0,
        "tle_line1": "1 36828U 10036A   25354.90794837 -.00000055  00000+0  00000+0 0  9992",
        "tle_line2": "2 36828  54.2882 164.5739 0051798 215.2932 144.6604  1.00282395 56317"
      },
      "geometry": {
        "type": "Point",
        "coordinates": [
          -95.31711730693463,
          53.816227441574064
        ]
      }
    },
    {
      "type": "Feature",
      "properties": {
        "norad_id": 37210,
        "name": "BEIDOU-2 G4 (C04)",
        "group": "gnss",
        "lat": -2.8861204645528025,
        "lon": -46.95127857237796,
        "alt_km": 35757.64471089642,
        "timestamp": "2025-12-25T03:55:56.598747+00:00",
        "meta_object_name": "BEIDOU-2 G4 (C04)",
        "meta_object_id": "2010-057A",
        "meta_epoch": "2025-12-24T20:15:12.616128",
        "meta_mean_motion": 1.00271572,
        "meta_eccentricity": 0.0010424,
        "meta_inclination": 3.2126,
        "meta_ra_of_asc_node": 69.8922,
        "meta_arg_of_pericenter": 193.9179,
        "meta_mean_anomaly": 293.6896,
        "meta_ephemeris_type": 0,
        "meta_classification_type": "U",
        "meta_norad_cat_id": 37210,
        "meta_element_set_no": 999,
        "meta_rev_at_epoch": 5554,
        "meta_bstar": 0,
        "meta_mean_motion_dot": -9.1e-07,
        "meta_mean_motion_ddot": 0,
        "tle_line1": "1 37210U 10057A   25358.84389602 -.00000091  00000+0  00000+0 0  9998",
        "tle_line2": "2 37210   3.2126  69.8922 0010424 193.9179 293.6896  1.00271572 55542"
      },
      "geometry": {
        "type": "Point",
        "coordinates": [
          -46.95127857237796,
          -2.8861204645528025
        ]
      }
    },
    {
      "type": "Feature",
      "properties": {
        "norad_id": 37256,
        "name": "BEIDOU-2 IGSO-2 (C07)",
        "group": "gnss",
        "lat": -9.359546482053904,
        "lon": -94.56721307456849,
        "alt_km": 35919.08831753712,
        "timestamp": "2025-12-25T03:55:56.598759+00:00",
        "meta_object_name": "BEIDOU-2 IGSO-2 (C07)",
        "meta_object_id": "2010-068A",
        "meta_epoch": "2025-12-24T17:01:55.972704",
        "meta_mean_motion": 1.00282798,
        "meta_eccentricity": 0.0048511,
        "meta_inclination": 47.864,
        "meta_ra_of_asc_node": 274.0027,
        "meta_arg_of_pericenter": 216.2647,
        "meta_mean_anomaly": 326.7558,
        "meta_ephemeris_type": 0,
        "meta_classification_type": "U",
        "meta_norad_cat_id": 37256,
        "meta_element_set_no": 999,
        "meta_rev_at_epoch": 5504,
        "meta_bstar": 0,
        "meta_mean_motion_dot": -1.92e-06,
        "meta_mean_motion_ddot": 0,
        "tle_line1": "1 37256U 10068A   25358.70967561 -.00000192  00000+0  00000+0 0  9993",
        "tle_line2": "2 37256  47.8640 274.0027 0048511 216.2647 326.7558  1.00282798 55040"
      },
      "geometry": {
        "type": "Point",
        "coordinates": [
          -94.56721307456849,
          -9.359546482053904
        ]
      }
    },
    {
      "type": "Feature",
      "properties": {
        "norad_id": 37384,
        "name": "BEIDOU-2 IGSO-3 (C08)",
        "group": "gnss",
        "lat": -33.390578956686326,
        "lon": -117.7931760379267,
        "alt_km": 35663.648966362474,
        "timestamp": "2025-12-25T03:55:56.598771+00:00",
        "meta_object_name": "BEIDOU-2 IGSO-3 (C08)",
        "meta_object_id": "2011-013A",
        "meta_epoch": "2025-12-24T13:36:08.179776",
        "meta_mean_motion": 1.00268125,
        "meta_eccentricity": 0.0035282,
        "meta_inclination": 62.1584,
        "meta_ra_of_asc_node": 41.8043,
        "meta_arg_of_pericenter": 187.8377,
        "meta_mean_anomaly": 174.9924,
        "meta_ephemeris_type": 0,
        "meta_classification_type": "U",
        "meta_norad_cat_id": 37384,
        "meta_element_set_no": 999,
        "meta_rev_at_epoch": 5391,
        "meta_bstar": 0,
        "meta_mean_motion_dot": -1.63e-06,
        "meta_mean_motion_ddot": 0,
        "tle_line1": "1 37384U 11013A   25358.56676134 -.00000163  00000+0  00000+0 0  9991",
        "tle_line2": "2 37384  62.1584  41.8043 0035282 187.8377 174.9924  1.00268125 53913"
      },
      "geometry": {
        "type": "Point",
        "coordinates": [
          -117.7931760379267,
          -33.390578956686326
        ]
      }
    },
    {
      "type": "Feature",
      "properties": {
        "norad_id": 37605,
        "name": "GSAT-8 (GAGAN/PRN 127)",
        "group": "gnss",
        "lat": 1.3912128839454367,
        "lon": -152.10315971759385,
        "alt_km": 35768.39363449892,
        "timestamp": "2025-12-25T03:55:56.598784+00:00",
        "meta_object_name": "GSAT-8 (GAGAN/PRN 127)",
        "meta_object_id": "2011-022A",
        "meta_epoch": "2025-12-24T18:29:55.048128",
        "meta_mean_motion": 1.00271489,
        "meta_eccentricity": 0.0008967,
        "meta_inclination": 1.679,
        "meta_ra_of_asc_node": 84.0683,
        "meta_arg_of_pericenter": 186.2673,
        "meta_mean_anomaly": 155.7521,
        "meta_ephemeris_type": 0,
        "meta_classification_type": "U",
        "meta_norad_cat_id": 37605,
        "meta_element_set_no": 999,
        "meta_rev_at_epoch": 5146,
        "meta_bstar": 0,
        "meta_mean_motion_dot": 1.05e-06,
        "meta_mean_motion_ddot": 0,
        "tle_line1": "1 37605U 11022A   25358.77077602  .00000105  00000+0  00000+0 0  9990",
        "tle_line2": "2 37605   1.6790  84.0683 0008967 186.2673 155.7521  1.00271489 51462"
      },
      "geometry": {
        "type": "Point",
        "coordinates": [
          -152.10315971759385,
          1.3912128839454367
        ]
      }
    },
    {
      "type": "Feature",
      "properties": {
        "norad_id": 37763,
        "name": "BEIDOU-2 IGSO-4 (C09)",
        "group": "gnss",
        "lat": 53.23979860136757,
        "lon": -120.33452721229499,
        "alt_km": 36323.3323762256,
        "timestamp": "2025-12-25T03:55:56.598797+00:00",
        "meta_object_name": "BEIDOU-2 IGSO-4 (C09)",
        "meta_object_id": "2011-038A",
        "meta_epoch": "2025-12-21T10:06:26.864064",
        "meta_mean_motion": 1.00280083,
        "meta_eccentricity": 0.01491557,
        "meta_inclination": 54.5854,
        "meta_ra_of_asc_node": 167.2693,
        "meta_arg_of_pericenter": 230.0944,
        "meta_mean_anomaly": 299.1265,
        "meta_ephemeris_type": 0,
        "meta_classification_type": "U",
        "meta_norad_cat_id": 37763,
        "meta_element_set_no": 999,
        "meta_rev_at_epoch": 5286,
        "meta_bstar": 0,
        "meta_mean_motion_dot": 5.9e-07,
        "meta_mean_motion_ddot": 0,
        "tle_line1": "1 37763U 11038A   25355.42114426  .00000059  00000+0  00000+0 0  9995",
        "tle_line2": "2 37763  54.5854 167.2693 0149155 230.0944 299.1265  1.00280083 52867"
      },
      "geometry": {
        "type": "Point",
        "coordinates": [
          -120.33452721229499,
          53.23979860136757
        ]
      }
    }
  ]
}